{
  "type": "FeatureCollection",
  "features": [
    {
      "type": "Feature",
      "geometry": {
        "type": "Point",
        "coordinates": [
          -72.675664,
          41.759392
        ]
      },
      "properties": {
        "asset_id": "HFD-STOP-108",
        "name": "Main St & Stop #8",
        "corridor": "Main St Corridor",
        "rank": 1,
        "priority_score": 80.0,
        "priority_category": "Critical",
        "heat_score": 57.4,
        "shade_score": 98.3,
        "vulnerability_score": 88.7,
        "transit_score": 98.3,
        "dangerous_minutes": 360.0,
        "persistence_minutes": 360.0,
        "cumulative_exceedance": 9.0,
        "peak_hour": 15,
        "is_heat_anomaly": false
      }
    },
    {
      "type": "Feature",
      "geometry": {
        "type": "Point",
        "coordinates": [
          -72.699975,
          41.758027
        ]
      },
      "properties": {
        "asset_id": "HFD-STOP-193",
        "name": "Capitol Ave / Trinity & Stop #15",
        "corridor": "Capitol Ave / Trinity Corridor",
        "rank": 2,
        "priority_score": 78.2,
        "priority_category": "High",
        "heat_score": 70.0,
        "shade_score": 86.1,
        "vulnerability_score": 91.3,
        "transit_score": 69.6,
        "dangerous_minutes": 420.0,
        "persistence_minutes": 420.0,
        "cumulative_exceedance": 12.7,
        "peak_hour": 15,
        "is_heat_anomaly": false
      }
    },
    {
      "type": "Feature",
      "geometry": {
        "type": "Point",
        "coordinates": [
          -72.692678,
          41.759232
        ]
      },
      "properties": {
        "asset_id": "HFD-STOP-150",
        "name": "Park St & Stop #8",
        "corridor": "Park St Corridor",
        "rank": 3,
        "priority_score": 71.7,
        "priority_category": "High",
        "heat_score": 73.0,
        "shade_score": 65.2,
        "vulnerability_score": 82.6,
        "transit_score": 64.3,
        "dangerous_minutes": 420.0,
        "persistence_minutes": 420.0,
        "cumulative_exceedance": 13.6,
        "peak_hour": 14,
        "is_heat_anomaly": false
      }
    },
    {
      "type": "Feature",
      "geometry": {
        "type": "Point",
        "coordinates": [
          -72.690062,
          41.758948
        ]
      },
      "properties": {
        "asset_id": "HFD-STOP-188",
        "name": "Capitol Ave / Trinity & Stop #10",
        "corridor": "Capitol Ave / Trinity Corridor",
        "rank": 4,
        "priority_score": 71.1,
        "priority_category": "High",
        "heat_score": 74.3,
        "shade_score": 54.8,
        "vulnerability_score": 73.9,
        "transit_score": 86.1,
        "dangerous_minutes": 420.0,
        "persistence_minutes": 420.0,
        "cumulative_exceedance": 14.6,
        "peak_hour": 16,
        "is_heat_anomaly": false
      }
    },
    {
      "type": "Feature",
      "geometry": {
        "type": "Point",
        "coordinates": [
          -72.682136,
          41.76049
        ]
      },
      "properties": {
        "asset_id": "HFD-STOP-184",
        "name": "Capitol Ave / Trinity & Stop #6",
        "corridor": "Capitol Ave / Trinity Corridor",
        "rank": 5,
        "priority_score": 69.7,
        "priority_category": "High",
        "heat_score": 76.1,
        "shade_score": 96.5,
        "vulnerability_score": 44.3,
        "transit_score": 41.7,
        "dangerous_minutes": 420.0,
        "persistence_minutes": 420.0,
        "cumulative_exceedance": 15.6,
        "peak_hour": 16,
        "is_heat_anomaly": false
      }
    },
    {
      "type": "Feature",
      "geometry": {
        "type": "Point",
        "coordinates": [
          -72.687678,
          41.783952
        ]
      },
      "properties": {
        "asset_id": "HFD-STOP-129",
        "name": "Albany Ave & Stop #7",
        "corridor": "Albany Ave Corridor",
        "rank": 6,
        "priority_score": 69.6,
        "priority_category": "High",
        "heat_score": 65.7,
        "shade_score": 79.1,
        "vulnerability_score": 45.2,
        "transit_score": 96.5,
        "dangerous_minutes": 360.0,
        "persistence_minutes": 360.0,
        "cumulative_exceedance": 12.7,
        "peak_hour": 14,
        "is_heat_anomaly": false
      }
    },
    {
      "type": "Feature",
      "geometry": {
        "type": "Point",
        "coordinates": [
          -72.69783,
          41.758122
        ]
      },
      "properties": {
        "asset_id": "HFD-STOP-192",
        "name": "Capitol Ave / Trinity & Stop #14",
        "corridor": "Capitol Ave / Trinity Corridor",
        "rank": 7,
        "priority_score": 68.4,
        "priority_category": "High",
        "heat_score": 80.0,
        "shade_score": 26.1,
        "vulnerability_score": 92.2,
        "transit_score": 76.5,
        "dangerous_minutes": 420.0,
        "persistence_minutes": 420.0,
        "cumulative_exceedance": 19.0,
        "peak_hour": 15,
        "is_heat_anomaly": false
      }
    },
    {
      "type": "Feature",
      "geometry": {
        "type": "Point",
        "coordinates": [
          -72.681735,
          41.78056
        ]
      },
      "properties": {
        "asset_id": "HFD-STOP-126",
        "name": "Albany Ave & Stop #4",
        "corridor": "Albany Ave Corridor",
        "rank": 8,
        "priority_score": 68.1,
        "priority_category": "High",
        "heat_score": 77.0,
        "shade_score": 58.3,
        "vulnerability_score": 65.2,
        "transit_score": 64.3,
        "dangerous_minutes": 420.0,
        "persistence_minutes": 420.0,
        "cumulative_exceedance": 16.1,
        "peak_hour": 15,
        "is_heat_anomaly": false
      }
    },
    {
      "type": "Feature",
      "geometry": {
        "type": "Point",
        "coordinates": [
          -72.701104,
          41.794181
        ]
      },
      "properties": {
        "asset_id": "HFD-STOP-215",
        "name": "Blue Hills Ave & Stop #8",
        "corridor": "Blue Hills Ave Corridor",
        "rank": 9,
        "priority_score": 66.0,
        "priority_category": "High",
        "heat_score": 82.2,
        "shade_score": 58.3,
        "vulnerability_score": 70.4,
        "transit_score": 29.6,
        "dangerous_minutes": 420.0,
        "persistence_minutes": 420.0,
        "cumulative_exceedance": 19.4,
        "peak_hour": 15,
        "is_heat_anomaly": false
      }
    },
    {
      "type": "Feature",
      "geometry": {
        "type": "Point",
        "coordinates": [
          -72.704311,
          41.79068
        ]
      },
      "properties": {
        "asset_id": "HFD-STOP-137",
        "name": "Albany Ave & Stop #15",
        "corridor": "Albany Ave Corridor",
        "rank": 10,
        "priority_score": 65.4,
        "priority_category": "High",
        "heat_score": 98.3,
        "shade_score": 40.9,
        "vulnerability_score": 67.0,
        "transit_score": 16.5,
        "dangerous_minutes": 480.0,
        "persistence_minutes": 480.0,
        "cumulative_exceedance": 23.5,
        "peak_hour": 14,
        "is_heat_anomaly": true
      }
    },
    {
      "type": "Feature",
      "geometry": {
        "type": "Point",
        "coordinates": [
          -72.705307,
          41.758441
        ]
      },
      "properties": {
        "asset_id": "HFD-STOP-155",
        "name": "Park St & Stop #13",
        "corridor": "Park St Corridor",
        "rank": 11,
        "priority_score": 65.4,
        "priority_category": "High",
        "heat_score": 75.7,
        "shade_score": 87.8,
        "vulnerability_score": 5.2,
        "transit_score": 80.9,
        "dangerous_minutes": 420.0,
        "persistence_minutes": 420.0,
        "cumulative_exceedance": 15.4,
        "peak_hour": 15,
        "is_heat_anomaly": false
      }
    },
    {
      "type": "Feature",
      "geometry": {
        "type": "Point",
        "coordinates": [
          -72.684859,
          41.768643
        ]
      },
      "properties": {
        "asset_id": "HFD-STOP-163",
        "name": "Farmington Ave & Stop #3",
        "corridor": "Farmington Ave Corridor",
        "rank": 12,
        "priority_score": 65.2,
        "priority_category": "High",
        "heat_score": 72.2,
        "shade_score": 61.7,
        "vulnerability_score": 29.6,
        "transit_score": 100.0,
        "dangerous_minutes": 420.0,
        "persistence_minutes": 420.0,
        "cumulative_exceedance": 13.4,
        "peak_hour": 15,
        "is_heat_anomaly": false
      }
    },
    {
      "type": "Feature",
      "geometry": {
        "type": "Point",
        "coordinates": [
          -72.69185,
          41.785153
        ]
      },
      "properties": {
        "asset_id": "HFD-STOP-131",
        "name": "Albany Ave & Stop #9",
        "corridor": "Albany Ave Corridor",
        "rank": 13,
        "priority_score": 64.8,
        "priority_category": "High",
        "heat_score": 70.9,
        "shade_score": 37.4,
        "vulnerability_score": 70.4,
        "transit_score": 87.0,
        "dangerous_minutes": 360.0,
        "persistence_minutes": 360.0,
        "cumulative_exceedance": 15.0,
        "peak_hour": 15,
        "is_heat_anomaly": false
      }
    },
    {
      "type": "Feature",
      "geometry": {
        "type": "Point",
        "coordinates": [
          -72.677053,
          41.783856
        ]
      },
      "properties": {
        "asset_id": "HFD-STOP-119",
        "name": "Main St & Stop #19",
        "corridor": "Main St Corridor",
        "rank": 14,
        "priority_score": 63.6,
        "priority_category": "High",
        "heat_score": 73.5,
        "shade_score": 51.3,
        "vulnerability_score": 33.9,
        "transit_score": 97.4,
        "dangerous_minutes": 420.0,
        "persistence_minutes": 420.0,
        "cumulative_exceedance": 14.4,
        "peak_hour": 15,
        "is_heat_anomaly": false
      }
    },
    {
      "type": "Feature",
      "geometry": {
        "type": "Point",
        "coordinates": [
          -72.708355,
          41.792155
        ]
      },
      "properties": {
        "asset_id": "HFD-STOP-139",
        "name": "Albany Ave & Stop #17",
        "corridor": "Albany Ave Corridor",
        "rank": 15,
        "priority_score": 63.5,
        "priority_category": "High",
        "heat_score": 83.9,
        "shade_score": 39.1,
        "vulnerability_score": 51.3,
        "transit_score": 66.1,
        "dangerous_minutes": 420.0,
        "persistence_minutes": 420.0,
        "cumulative_exceedance": 24.9,
        "peak_hour": 15,
        "is_heat_anomaly": false
      }
    },
    {
      "type": "Feature",
      "geometry": {
        "type": "Point",
        "coordinates": [
          -72.677245,
          41.76094
        ]
      },
      "properties": {
        "asset_id": "HFD-STOP-181",
        "name": "Capitol Ave / Trinity & Stop #3",
        "corridor": "Capitol Ave / Trinity Corridor",
        "rank": 16,
        "priority_score": 63.3,
        "priority_category": "High",
        "heat_score": 64.3,
        "shade_score": 99.1,
        "vulnerability_score": 29.6,
        "transit_score": 46.1,
        "dangerous_minutes": 420.0,
        "persistence_minutes": 420.0,
        "cumulative_exceedance": 9.6,
        "peak_hour": 15,
        "is_heat_anomaly": false
      }
    },
    {
      "type": "Feature",
      "geometry": {
        "type": "Point",
        "coordinates": [
          -72.710191,
          41.770757
        ]
      },
      "properties": {
        "asset_id": "HFD-STOP-174",
        "name": "Farmington Ave & Stop #14",
        "corridor": "Farmington Ave Corridor",
        "rank": 17,
        "priority_score": 63.2,
        "priority_category": "High",
        "heat_score": 84.3,
        "shade_score": 81.7,
        "vulnerability_score": 8.7,
        "transit_score": 48.7,
        "dangerous_minutes": 420.0,
        "persistence_minutes": 420.0,
        "cumulative_exceedance": 25.1,
        "peak_hour": 15,
        "is_heat_anomaly": false
      }
    },
    {
      "type": "Feature",
      "geometry": {
        "type": "Point",
        "coordinates": [
          -72.690248,
          41.758617
        ]
      },
      "properties": {
        "asset_id": "HFD-STOP-149",
        "name": "Park St & Stop #7",
        "corridor": "Park St Corridor",
        "rank": 18,
        "priority_score": 61.7,
        "priority_category": "High",
        "heat_score": 74.3,
        "shade_score": 47.8,
        "vulnerability_score": 98.3,
        "transit_score": 2.6,
        "dangerous_minutes": 420.0,
        "persistence_minutes": 420.0,
        "cumulative_exceedance": 14.6,
        "peak_hour": 16,
        "is_heat_anomaly": false
      }
    },
    {
      "type": "Feature",
      "geometry": {
        "type": "Point",
        "coordinates": [
          -72.705091,
          41.801752
        ]
      },
      "properties": {
        "asset_id": "HFD-STOP-220",
        "name": "Blue Hills Ave & Stop #13",
        "corridor": "Blue Hills Ave Corridor",
        "rank": 19,
        "priority_score": 61.5,
        "priority_category": "High",
        "heat_score": 83.0,
        "shade_score": 47.8,
        "vulnerability_score": 58.3,
        "transit_score": 31.3,
        "dangerous_minutes": 420.0,
        "persistence_minutes": 420.0,
        "cumulative_exceedance": 21.2,
        "peak_hour": 14,
        "is_heat_anomaly": false
      }
    },
    {
      "type": "Feature",
      "geometry": {
        "type": "Point",
        "coordinates": [
          -72.697543,
          41.758492
        ]
      },
      "properties": {
        "asset_id": "HFD-STOP-152",
        "name": "Park St & Stop #10",
        "corridor": "Park St Corridor",
        "rank": 20,
        "priority_score": 61.3,
        "priority_category": "High",
        "heat_score": 80.0,
        "shade_score": 20.0,
        "vulnerability_score": 86.1,
        "transit_score": 47.0,
        "dangerous_minutes": 420.0,
        "persistence_minutes": 420.0,
        "cumulative_exceedance": 19.0,
        "peak_hour": 15,
        "is_heat_anomaly": false
      }
    },
    {
      "type": "Feature",
      "geometry": {
        "type": "Point",
        "coordinates": [
          -72.67318,
          41.754957
        ]
      },
      "properties": {
        "asset_id": "HFD-STOP-207",
        "name": "Franklin Ave & Stop #14",
        "corridor": "Franklin Ave Corridor",
        "rank": 21,
        "priority_score": 61.2,
        "priority_category": "High",
        "heat_score": 37.8,
        "shade_score": 71.3,
        "vulnerability_score": 80.0,
        "transit_score": 81.7,
        "dangerous_minutes": 300.0,
        "persistence_minutes": 300.0,
        "cumulative_exceedance": 8.7,
        "peak_hour": 15,
        "is_heat_anomaly": false
      }
    },
    {
      "type": "Feature",
      "geometry": {
        "type": "Point",
        "coordinates": [
          -72.698709,
          41.792051
        ]
      },
      "properties": {
        "asset_id": "HFD-STOP-213",
        "name": "Blue Hills Ave & Stop #6",
        "corridor": "Blue Hills Ave Corridor",
        "rank": 22,
        "priority_score": 60.4,
        "priority_category": "High",
        "heat_score": 78.7,
        "shade_score": 60.9,
        "vulnerability_score": 59.1,
        "transit_score": 12.2,
        "dangerous_minutes": 420.0,
        "persistence_minutes": 420.0,
        "cumulative_exceedance": 18.3,
        "peak_hour": 15,
        "is_heat_anomaly": false
      }
    },
    {
      "type": "Feature",
      "geometry": {
        "type": "Point",
        "coordinates": [
          -72.685832,
          41.782069
        ]
      },
      "properties": {
        "asset_id": "HFD-STOP-128",
        "name": "Albany Ave & Stop #6",
        "corridor": "Albany Ave Corridor",
        "rank": 23,
        "priority_score": 60.2,
        "priority_category": "High",
        "heat_score": 46.5,
        "shade_score": 82.6,
        "vulnerability_score": 45.2,
        "transit_score": 79.1,
        "dangerous_minutes": 300.0,
        "persistence_minutes": 300.0,
        "cumulative_exceedance": 12.1,
        "peak_hour": 14,
        "is_heat_anomaly": false
      }
    },
    {
      "type": "Feature",
      "geometry": {
        "type": "Point",
        "coordinates": [
          -72.708267,
          41.769729
        ]
      },
      "properties": {
        "asset_id": "HFD-STOP-173",
        "name": "Farmington Ave & Stop #13",
        "corridor": "Farmington Ave Corridor",
        "rank": 24,
        "priority_score": 59.3,
        "priority_category": "Moderate",
        "heat_score": 72.2,
        "shade_score": 69.6,
        "vulnerability_score": 2.6,
        "transit_score": 83.5,
        "dangerous_minutes": 420.0,
        "persistence_minutes": 420.0,
        "cumulative_exceedance": 13.4,
        "peak_hour": 15,
        "is_heat_anomaly": false
      }
    },
    {
      "type": "Feature",
      "geometry": {
        "type": "Point",
        "coordinates": [
          -72.705321,
          41.76987
        ]
      },
      "properties": {
        "asset_id": "HFD-STOP-172",
        "name": "Farmington Ave & Stop #12",
        "corridor": "Farmington Ave Corridor",
        "rank": 25,
        "priority_score": 59.2,
        "priority_category": "Moderate",
        "heat_score": 76.1,
        "shade_score": 60.0,
        "vulnerability_score": 1.7,
        "transit_score": 89.6,
        "dangerous_minutes": 420.0,
        "persistence_minutes": 420.0,
        "cumulative_exceedance": 15.6,
        "peak_hour": 15,
        "is_heat_anomaly": false
      }
    },
    {
      "type": "Feature",
      "geometry": {
        "type": "Point",
        "coordinates": [
          -72.701948,
          41.78959
        ]
      },
      "properties": {
        "asset_id": "HFD-STOP-136",
        "name": "Albany Ave & Stop #14",
        "corridor": "Albany Ave Corridor",
        "rank": 26,
        "priority_score": 59.2,
        "priority_category": "Moderate",
        "heat_score": 78.3,
        "shade_score": 54.8,
        "vulnerability_score": 41.7,
        "transit_score": 39.1,
        "dangerous_minutes": 420.0,
        "persistence_minutes": 420.0,
        "cumulative_exceedance": 18.1,
        "peak_hour": 15,
        "is_heat_anomaly": false
      }
    },
    {
      "type": "Feature",
      "geometry": {
        "type": "Point",
        "coordinates": [
          -72.694573,
          41.759004
        ]
      },
      "properties": {
        "asset_id": "HFD-STOP-190",
        "name": "Capitol Ave / Trinity & Stop #12",
        "corridor": "Capitol Ave / Trinity Corridor",
        "rank": 27,
        "priority_score": 58.2,
        "priority_category": "Moderate",
        "heat_score": 63.9,
        "shade_score": 24.3,
        "vulnerability_score": 77.4,
        "transit_score": 73.9,
        "dangerous_minutes": 360.0,
        "persistence_minutes": 360.0,
        "cumulative_exceedance": 10.9,
        "peak_hour": 15,
        "is_heat_anomaly": false
      }
    },
    {
      "type": "Feature",
      "geometry": {
        "type": "Point",
        "coordinates": [
          -72.679522,
          41.758374
        ]
      },
      "properties": {
        "asset_id": "HFD-STOP-145",
        "name": "Park St & Stop #3",
        "corridor": "Park St Corridor",
        "rank": 28,
        "priority_score": 57.8,
        "priority_category": "Moderate",
        "heat_score": 73.5,
        "shade_score": 7.0,
        "vulnerability_score": 81.7,
        "transit_score": 68.7,
        "dangerous_minutes": 420.0,
        "persistence_minutes": 420.0,
        "cumulative_exceedance": 14.4,
        "peak_hour": 16,
        "is_heat_anomaly": false
      }
    },
    {
      "type": "Feature",
      "geometry": {
        "type": "Point",
        "coordinates": [
          -72.679301,
          41.760349
        ]
      },
      "properties": {
        "asset_id": "HFD-STOP-182",
        "name": "Capitol Ave / Trinity & Stop #4",
        "corridor": "Capitol Ave / Trinity Corridor",
        "rank": 29,
        "priority_score": 57.7,
        "priority_category": "Moderate",
        "heat_score": 43.9,
        "shade_score": 85.2,
        "vulnerability_score": 43.5,
        "transit_score": 67.8,
        "dangerous_minutes": 300.0,
        "persistence_minutes": 300.0,
        "cumulative_exceedance": 10.7,
        "peak_hour": 15,
        "is_heat_anomaly": false
      }
    },
    {
      "type": "Feature",
      "geometry": {
        "type": "Point",
        "coordinates": [
          -72.674954,
          41.7583
        ]
      },
      "properties": {
        "asset_id": "HFD-STOP-143",
        "name": "Park St & Stop #1",
        "corridor": "Park St Corridor",
        "rank": 30,
        "priority_score": 57.1,
        "priority_category": "Moderate",
        "heat_score": 55.7,
        "shade_score": 77.4,
        "vulnerability_score": 76.5,
        "transit_score": 0.9,
        "dangerous_minutes": 360.0,
        "persistence_minutes": 360.0,
        "cumulative_exceedance": 8.6,
        "peak_hour": 15,
        "is_heat_anomaly": false
      }
    },
    {
      "type": "Feature",
      "geometry": {
        "type": "Point",
        "coordinates": [
          -72.714238,
          41.795409
        ]
      },
      "properties": {
        "asset_id": "HFD-STOP-142",
        "name": "Albany Ave & Stop #20",
        "corridor": "Albany Ave Corridor",
        "rank": 31,
        "priority_score": 56.3,
        "priority_category": "Moderate",
        "heat_score": 85.2,
        "shade_score": 1.7,
        "vulnerability_score": 63.5,
        "transit_score": 60.9,
        "dangerous_minutes": 420.0,
        "persistence_minutes": 420.0,
        "cumulative_exceedance": 26.3,
        "peak_hour": 15,
        "is_heat_anomaly": false
      }
    },
    {
      "type": "Feature",
      "geometry": {
        "type": "Point",
        "coordinates": [
          -72.67809,
          41.790026
        ]
      },
      "properties": {
        "asset_id": "HFD-STOP-122",
        "name": "Main St & Stop #22",
        "corridor": "Main St Corridor",
        "rank": 32,
        "priority_score": 55.7,
        "priority_category": "Moderate",
        "heat_score": 80.9,
        "shade_score": 40.9,
        "vulnerability_score": 42.6,
        "transit_score": 30.4,
        "dangerous_minutes": 420.0,
        "persistence_minutes": 420.0,
        "cumulative_exceedance": 19.1,
        "peak_hour": 15,
        "is_heat_anomaly": false
      }
    },
    {
      "type": "Feature",
      "geometry": {
        "type": "Point",
        "coordinates": [
          -72.677908,
          41.785823
        ]
      },
      "properties": {
        "asset_id": "HFD-STOP-120",
        "name": "Main St & Stop #20",
        "corridor": "Main St Corridor",
        "rank": 33,
        "priority_score": 55.7,
        "priority_category": "Moderate",
        "heat_score": 77.4,
        "shade_score": 49.6,
        "vulnerability_score": 55.7,
        "transit_score": 7.8,
        "dangerous_minutes": 420.0,
        "persistence_minutes": 420.0,
        "cumulative_exceedance": 17.4,
        "peak_hour": 15,
        "is_heat_anomaly": false
      }
    },
    {
      "type": "Feature",
      "geometry": {
        "type": "Point",
        "coordinates": [
          -72.696235,
          41.786177
        ]
      },
      "properties": {
        "asset_id": "HFD-STOP-209",
        "name": "Blue Hills Ave & Stop #2",
        "corridor": "Blue Hills Ave Corridor",
        "rank": 34,
        "priority_score": 55.3,
        "priority_category": "Moderate",
        "heat_score": 30.9,
        "shade_score": 77.4,
        "vulnerability_score": 53.9,
        "transit_score": 85.2,
        "dangerous_minutes": 300.0,
        "persistence_minutes": 300.0,
        "cumulative_exceedance": 5.3,
        "peak_hour": 14,
        "is_heat_anomaly": false
      }
    },
    {
      "type": "Feature",
      "geometry": {
        "type": "Point",
        "coordinates": [
          -72.687078,
          41.758541
        ]
      },
      "properties": {
        "asset_id": "HFD-STOP-148",
        "name": "Park St & Stop #6",
        "corridor": "Park St Corridor",
        "rank": 35,
        "priority_score": 55.1,
        "priority_category": "Moderate",
        "heat_score": 33.5,
        "shade_score": 54.8,
        "vulnerability_score": 93.9,
        "transit_score": 61.7,
        "dangerous_minutes": 300.0,
        "persistence_minutes": 300.0,
        "cumulative_exceedance": 6.4,
        "peak_hour": 16,
        "is_heat_anomaly": false
      }
    },
    {
      "type": "Feature",
      "geometry": {
        "type": "Point",
        "coordinates": [
          -72.695312,
          41.785139
        ]
      },
      "properties": {
        "asset_id": "HFD-STOP-208",
        "name": "Blue Hills Ave & Stop #1",
        "corridor": "Blue Hills Ave Corridor",
        "rank": 36,
        "priority_score": 55.0,
        "priority_category": "Moderate",
        "heat_score": 29.6,
        "shade_score": 79.1,
        "vulnerability_score": 53.9,
        "transit_score": 84.3,
        "dangerous_minutes": 300.0,
        "persistence_minutes": 300.0,
        "cumulative_exceedance": 4.9,
        "peak_hour": 14,
        "is_heat_anomaly": false
      }
    },
    {
      "type": "Feature",
      "geometry": {
        "type": "Point",
        "coordinates": [
          -72.676633,
          41.76417
        ]
      },
      "properties": {
        "asset_id": "HFD-STOP-110",
        "name": "Main St & Stop #10",
        "corridor": "Main St Corridor",
        "rank": 37,
        "priority_score": 54.9,
        "priority_category": "Moderate",
        "heat_score": 36.5,
        "shade_score": 90.4,
        "vulnerability_score": 22.6,
        "transit_score": 87.8,
        "dangerous_minutes": 300.0,
        "persistence_minutes": 300.0,
        "cumulative_exceedance": 8.0,
        "peak_hour": 15,
        "is_heat_anomaly": false
      }
    },
    {
      "type": "Feature",
      "geometry": {
        "type": "Point",
        "coordinates": [
          -72.699569,
          41.793315
        ]
      },
      "properties": {
        "asset_id": "HFD-STOP-214",
        "name": "Blue Hills Ave & Stop #7",
        "corridor": "Blue Hills Ave Corridor",
        "rank": 38,
        "priority_score": 54.3,
        "priority_category": "Moderate",
        "heat_score": 79.6,
        "shade_score": 10.4,
        "vulnerability_score": 57.4,
        "transit_score": 55.7,
        "dangerous_minutes": 420.0,
        "persistence_minutes": 420.0,
        "cumulative_exceedance": 18.8,
        "peak_hour": 15,
        "is_heat_anomaly": false
      }
    },
    {
      "type": "Feature",
      "geometry": {
        "type": "Point",
        "coordinates": [
          -72.689356,
          41.768098
        ]
      },
      "properties": {
        "asset_id": "HFD-STOP-165",
        "name": "Farmington Ave & Stop #5",
        "corridor": "Farmington Ave Corridor",
        "rank": 39,
        "priority_score": 54.2,
        "priority_category": "Moderate",
        "heat_score": 80.9,
        "shade_score": 54.8,
        "vulnerability_score": 20.9,
        "transit_score": 26.1,
        "dangerous_minutes": 420.0,
        "persistence_minutes": 420.0,
        "cumulative_exceedance": 19.1,
        "peak_hour": 16,
        "is_heat_anomaly": false
      }
    },
    {
      "type": "Feature",
      "geometry": {
        "type": "Point",
        "coordinates": [
          -72.675945,
          41.755781
        ]
      },
      "properties": {
        "asset_id": "HFD-STOP-106",
        "name": "Main St & Stop #6",
        "corridor": "Main St Corridor",
        "rank": 40,
        "priority_score": 54.2,
        "priority_category": "Moderate",
        "heat_score": 34.3,
        "shade_score": 22.6,
        "vulnerability_score": 100.0,
        "transit_score": 99.1,
        "dangerous_minutes": 300.0,
        "persistence_minutes": 300.0,
        "cumulative_exceedance": 7.3,
        "peak_hour": 15,
        "is_heat_anomaly": false
      }
    },
    {
      "type": "Feature",
      "geometry": {
        "type": "Point",
        "coordinates": [
          -72.704006,
          41.800173
        ]
      },
      "properties": {
        "asset_id": "HFD-STOP-219",
        "name": "Blue Hills Ave & Stop #12",
        "corridor": "Blue Hills Ave Corridor",
        "rank": 41,
        "priority_score": 53.8,
        "priority_category": "Moderate",
        "heat_score": 82.6,
        "shade_score": 26.1,
        "vulnerability_score": 45.2,
        "transit_score": 34.8,
        "dangerous_minutes": 420.0,
        "persistence_minutes": 420.0,
        "cumulative_exceedance": 20.5,
        "peak_hour": 14,
        "is_heat_anomaly": false
      }
    },
    {
      "type": "Feature",
      "geometry": {
        "type": "Point",
        "coordinates": [
          -72.688452,
          41.758549
        ]
      },
      "properties": {
        "asset_id": "HFD-STOP-187",
        "name": "Capitol Ave / Trinity & Stop #9",
        "corridor": "Capitol Ave / Trinity Corridor",
        "rank": 42,
        "priority_score": 53.3,
        "priority_category": "Moderate",
        "heat_score": 33.9,
        "shade_score": 61.7,
        "vulnerability_score": 78.3,
        "transit_score": 57.4,
        "dangerous_minutes": 300.0,
        "persistence_minutes": 300.0,
        "cumulative_exceedance": 6.9,
        "peak_hour": 15,
        "is_heat_anomaly": false
      }
    },
    {
      "type": "Feature",
      "geometry": {
        "type": "Point",
        "coordinates": [
          -72.673001,
          41.74926
        ]
      },
      "properties": {
        "asset_id": "HFD-STOP-204",
        "name": "Franklin Ave & Stop #11",
        "corridor": "Franklin Ave Corridor",
        "rank": 43,
        "priority_score": 52.8,
        "priority_category": "Moderate",
        "heat_score": 26.5,
        "shade_score": 65.2,
        "vulnerability_score": 84.3,
        "transit_score": 60.0,
        "dangerous_minutes": 300.0,
        "persistence_minutes": 300.0,
        "cumulative_exceedance": 3.9,
        "peak_hour": 16,
        "is_heat_anomaly": false
      }
    },
    {
      "type": "Feature",
      "geometry": {
        "type": "Point",
        "coordinates": [
          -72.694942,
          41.758182
        ]
      },
      "properties": {
        "asset_id": "HFD-STOP-151",
        "name": "Park St & Stop #9",
        "corridor": "Park St Corridor",
        "rank": 44,
        "priority_score": 52.4,
        "priority_category": "Moderate",
        "heat_score": 44.3,
        "shade_score": 51.3,
        "vulnerability_score": 99.1,
        "transit_score": 13.9,
        "dangerous_minutes": 300.0,
        "persistence_minutes": 300.0,
        "cumulative_exceedance": 10.8,
        "peak_hour": 15,
        "is_heat_anomaly": false
      }
    },
    {
      "type": "Feature",
      "geometry": {
        "type": "Point",
        "coordinates": [
          -72.680738,
          41.760277
        ]
      },
      "properties": {
        "asset_id": "HFD-STOP-183",
        "name": "Capitol Ave / Trinity & Stop #5",
        "corridor": "Capitol Ave / Trinity Corridor",
        "rank": 45,
        "priority_score": 52.2,
        "priority_category": "Moderate",
        "heat_score": 40.0,
        "shade_score": 95.7,
        "vulnerability_score": 21.7,
        "transit_score": 53.0,
        "dangerous_minutes": 300.0,
        "persistence_minutes": 300.0,
        "cumulative_exceedance": 9.1,
        "peak_hour": 15,
        "is_heat_anomaly": false
      }
    },
    {
      "type": "Feature",
      "geometry": {
        "type": "Point",
        "coordinates": [
          -72.700061,
          41.758452
        ]
      },
      "properties": {
        "asset_id": "HFD-STOP-153",
        "name": "Park St & Stop #11",
        "corridor": "Park St Corridor",
        "rank": 46,
        "priority_score": 52.0,
        "priority_category": "Moderate",
        "heat_score": 70.9,
        "shade_score": 86.1,
        "vulnerability_score": 3.5,
        "transit_score": 9.6,
        "dangerous_minutes": 420.0,
        "persistence_minutes": 420.0,
        "cumulative_exceedance": 12.9,
        "peak_hour": 15,
        "is_heat_anomaly": false
      }
    },
    {
      "type": "Feature",
      "geometry": {
        "type": "Point",
        "coordinates": [
          -72.70645,
          41.791658
        ]
      },
      "properties": {
        "asset_id": "HFD-STOP-138",
        "name": "Albany Ave & Stop #16",
        "corridor": "Albany Ave Corridor",
        "rank": 47,
        "priority_score": 51.7,
        "priority_category": "Moderate",
        "heat_score": 62.6,
        "shade_score": 30.4,
        "vulnerability_score": 39.1,
        "transit_score": 74.8,
        "dangerous_minutes": 360.0,
        "persistence_minutes": 360.0,
        "cumulative_exceedance": 10.8,
        "peak_hour": 14,
        "is_heat_anomaly": false
      }
    },
    {
      "type": "Feature",
      "geometry": {
        "type": "Point",
        "coordinates": [
          -72.710838,
          41.793397
        ]
      },
      "properties": {
        "asset_id": "HFD-STOP-140",
        "name": "Albany Ave & Stop #18",
        "corridor": "Albany Ave Corridor",
        "rank": 48,
        "priority_score": 51.6,
        "priority_category": "Moderate",
        "heat_score": 46.1,
        "shade_score": 43.5,
        "vulnerability_score": 64.3,
        "transit_score": 62.6,
        "dangerous_minutes": 300.0,
        "persistence_minutes": 300.0,
        "cumulative_exceedance": 11.2,
        "peak_hour": 15,
        "is_heat_anomaly": false
      }
    },
    {
      "type": "Feature",
      "geometry": {
        "type": "Point",
        "coordinates": [
          -72.712237,
          41.770488
        ]
      },
      "properties": {
        "asset_id": "HFD-STOP-175",
        "name": "Farmington Ave & Stop #15",
        "corridor": "Farmington Ave Corridor",
        "rank": 49,
        "priority_score": 51.5,
        "priority_category": "Moderate",
        "heat_score": 79.1,
        "shade_score": 38.3,
        "vulnerability_score": 4.3,
        "transit_score": 62.6,
        "dangerous_minutes": 420.0,
        "persistence_minutes": 420.0,
        "cumulative_exceedance": 18.6,
        "peak_hour": 15,
        "is_heat_anomaly": false
      }
    },
    {
      "type": "Feature",
      "geometry": {
        "type": "Point",
        "coordinates": [
          -72.697305,
          41.789213
        ]
      },
      "properties": {
        "asset_id": "HFD-STOP-211",
        "name": "Blue Hills Ave & Stop #4",
        "corridor": "Blue Hills Ave Corridor",
        "rank": 50,
        "priority_score": 51.2,
        "priority_category": "Moderate",
        "heat_score": 35.7,
        "shade_score": 74.8,
        "vulnerability_score": 66.1,
        "transit_score": 33.0,
        "dangerous_minutes": 300.0,
        "persistence_minutes": 300.0,
        "cumulative_exceedance": 7.9,
        "peak_hour": 15,
        "is_heat_anomaly": false
      }
    },
    {
      "type": "Feature",
      "geometry": {
        "type": "Point",
        "coordinates": [
          -72.696667,
          41.769093
        ]
      },
      "properties": {
        "asset_id": "HFD-STOP-168",
        "name": "Farmington Ave & Stop #8",
        "corridor": "Farmington Ave Corridor",
        "rank": 51,
        "priority_score": 50.9,
        "priority_category": "Moderate",
        "heat_score": 69.6,
        "shade_score": 46.1,
        "vulnerability_score": 32.2,
        "transit_score": 33.9,
        "dangerous_minutes": 420.0,
        "persistence_minutes": 420.0,
        "cumulative_exceedance": 12.3,
        "peak_hour": 16,
        "is_heat_anomaly": false
      }
    },
    {
      "type": "Feature",
      "geometry": {
        "type": "Point",
        "coordinates": [
          -72.6757,
          41.753578
        ]
      },
      "properties": {
        "asset_id": "HFD-STOP-105",
        "name": "Main St & Stop #5",
        "corridor": "Main St Corridor",
        "rank": 52,
        "priority_score": 50.8,
        "priority_category": "Moderate",
        "heat_score": 3.5,
        "shade_score": 63.5,
        "vulnerability_score": 95.7,
        "transit_score": 95.7,
        "dangerous_minutes": 120.0,
        "persistence_minutes": 120.0,
        "cumulative_exceedance": 0.3,
        "peak_hour": 15,
        "is_heat_anomaly": false
      }
    },
    {
      "type": "Feature",
      "geometry": {
        "type": "Point",
        "coordinates": [
          -72.686243,
          41.759843
        ]
      },
      "properties": {
        "asset_id": "HFD-STOP-186",
        "name": "Capitol Ave / Trinity & Stop #8",
        "corridor": "Capitol Ave / Trinity Corridor",
        "rank": 53,
        "priority_score": 50.7,
        "priority_category": "Moderate",
        "heat_score": 27.4,
        "shade_score": 87.8,
        "vulnerability_score": 74.8,
        "transit_score": 19.1,
        "dangerous_minutes": 300.0,
        "persistence_minutes": 300.0,
        "cumulative_exceedance": 4.1,
        "peak_hour": 15,
        "is_heat_anomaly": false
      }
    },
    {
      "type": "Feature",
      "geometry": {
        "type": "Point",
        "coordinates": [
          -72.712864,
          41.758974
        ]
      },
      "properties": {
        "asset_id": "HFD-STOP-158",
        "name": "Park St & Stop #16",
        "corridor": "Park St Corridor",
        "rank": 54,
        "priority_score": 50.6,
        "priority_category": "Moderate",
        "heat_score": 77.8,
        "shade_score": 47.0,
        "vulnerability_score": 10.4,
        "transit_score": 37.4,
        "dangerous_minutes": 420.0,
        "persistence_minutes": 420.0,
        "cumulative_exceedance": 17.9,
        "peak_hour": 15,
        "is_heat_anomaly": false
      }
    },
    {
      "type": "Feature",
      "geometry": {
        "type": "Point",
        "coordinates": [
          -72.67741,
          41.774437
        ]
      },
      "properties": {
        "asset_id": "HFD-STOP-115",
        "name": "Main St & Stop #15",
        "corridor": "Main St Corridor",
        "rank": 55,
        "priority_score": 49.4,
        "priority_category": "Moderate",
        "heat_score": 5.7,
        "shade_score": 94.8,
        "vulnerability_score": 50.4,
        "transit_score": 88.7,
        "dangerous_minutes": 120.0,
        "persistence_minutes": 120.0,
        "cumulative_exceedance": 1.1,
        "peak_hour": 15,
        "is_heat_anomaly": false
      }
    },
    {
      "type": "Feature",
      "geometry": {
        "type": "Point",
        "coordinates": [
          -72.678943,
          41.779349
        ]
      },
      "properties": {
        "asset_id": "HFD-STOP-125",
        "name": "Albany Ave & Stop #3",
        "corridor": "Albany Ave Corridor",
        "rank": 56,
        "priority_score": 48.4,
        "priority_category": "Moderate",
        "heat_score": 31.3,
        "shade_score": 76.5,
        "vulnerability_score": 25.2,
        "transit_score": 78.3,
        "dangerous_minutes": 300.0,
        "persistence_minutes": 300.0,
        "cumulative_exceedance": 5.7,
        "peak_hour": 14,
        "is_heat_anomaly": false
      }
    },
    {
      "type": "Feature",
      "geometry": {
        "type": "Point",
        "coordinates": [
          -72.71525,
          41.770817
        ]
      },
      "properties": {
        "asset_id": "HFD-STOP-176",
        "name": "Farmington Ave & Stop #16",
        "corridor": "Farmington Ave Corridor",
        "rank": 57,
        "priority_score": 48.2,
        "priority_category": "Moderate",
        "heat_score": 80.9,
        "shade_score": 2.6,
        "vulnerability_score": 7.0,
        "transit_score": 92.2,
        "dangerous_minutes": 420.0,
        "persistence_minutes": 420.0,
        "cumulative_exceedance": 19.1,
        "peak_hour": 15,
        "is_heat_anomaly": false
      }
    },
    {
      "type": "Feature",
      "geometry": {
        "type": "Point",
        "coordinates": [
          -72.697114,
          41.788352
        ]
      },
      "properties": {
        "asset_id": "HFD-STOP-210",
        "name": "Blue Hills Ave & Stop #3",
        "corridor": "Blue Hills Ave Corridor",
        "rank": 58,
        "priority_score": 48.1,
        "priority_category": "Moderate",
        "heat_score": 35.2,
        "shade_score": 44.3,
        "vulnerability_score": 60.0,
        "transit_score": 73.0,
        "dangerous_minutes": 300.0,
        "persistence_minutes": 300.0,
        "cumulative_exceedance": 7.6,
        "peak_hour": 15,
        "is_heat_anomaly": false
      }
    },
    {
      "type": "Feature",
      "geometry": {
        "type": "Point",
        "coordinates": [
          -72.677388,
          41.787846
        ]
      },
      "properties": {
        "asset_id": "HFD-STOP-121",
        "name": "Main St & Stop #21",
        "corridor": "Main St Corridor",
        "rank": 59,
        "priority_score": 48.0,
        "priority_category": "Moderate",
        "heat_score": 35.7,
        "shade_score": 92.2,
        "vulnerability_score": 22.6,
        "transit_score": 40.9,
        "dangerous_minutes": 300.0,
        "persistence_minutes": 300.0,
        "cumulative_exceedance": 7.9,
        "peak_hour": 16,
        "is_heat_anomaly": false
      }
    },
    {
      "type": "Feature",
      "geometry": {
        "type": "Point",
        "coordinates": [
          -72.697566,
          41.787944
        ]
      },
      "properties": {
        "asset_id": "HFD-STOP-134",
        "name": "Albany Ave & Stop #12",
        "corridor": "Albany Ave Corridor",
        "rank": 60,
        "priority_score": 48.0,
        "priority_category": "Moderate",
        "heat_score": 43.0,
        "shade_score": 40.0,
        "vulnerability_score": 33.0,
        "transit_score": 94.8,
        "dangerous_minutes": 300.0,
        "persistence_minutes": 300.0,
        "cumulative_exceedance": 10.3,
        "peak_hour": 15,
        "is_heat_anomaly": false
      }
    },
    {
      "type": "Feature",
      "geometry": {
        "type": "Point",
        "coordinates": [
          -72.675266,
          41.751288
        ]
      },
      "properties": {
        "asset_id": "HFD-STOP-104",
        "name": "Main St & Stop #4",
        "corridor": "Main St Corridor",
        "rank": 61,
        "priority_score": 47.3,
        "priority_category": "Moderate",
        "heat_score": 28.7,
        "shade_score": 33.0,
        "vulnerability_score": 84.3,
        "transit_score": 71.3,
        "dangerous_minutes": 300.0,
        "persistence_minutes": 300.0,
        "cumulative_exceedance": 4.8,
        "peak_hour": 16,
        "is_heat_anomaly": false
      }
    },
    {
      "type": "Feature",
      "geometry": {
        "type": "Point",
        "coordinates": [
          -72.677388,
          41.758304
        ]
      },
      "properties": {
        "asset_id": "HFD-STOP-144",
        "name": "Park St & Stop #2",
        "corridor": "Park St Corridor",
        "rank": 62,
        "priority_score": 47.1,
        "priority_category": "Moderate",
        "heat_score": 5.2,
        "shade_score": 97.4,
        "vulnerability_score": 87.0,
        "transit_score": 21.7,
        "dangerous_minutes": 120.0,
        "persistence_minutes": 120.0,
        "cumulative_exceedance": 1.0,
        "peak_hour": 14,
        "is_heat_anomaly": false
      }
    },
    {
      "type": "Feature",
      "geometry": {
        "type": "Point",
        "coordinates": [
          -72.696146,
          41.758219
        ]
      },
      "properties": {
        "asset_id": "HFD-STOP-191",
        "name": "Capitol Ave / Trinity & Stop #13",
        "corridor": "Capitol Ave / Trinity Corridor",
        "rank": 63,
        "priority_score": 46.3,
        "priority_category": "Moderate",
        "heat_score": 11.3,
        "shade_score": 79.1,
        "vulnerability_score": 73.0,
        "transit_score": 49.6,
        "dangerous_minutes": 240.0,
        "persistence_minutes": 240.0,
        "cumulative_exceedance": 1.2,
        "peak_hour": 14,
        "is_heat_anomaly": false
      }
    },
    {
      "type": "Feature",
      "geometry": {
        "type": "Point",
        "coordinates": [
          -72.69381,
          41.785825
        ]
      },
      "properties": {
        "asset_id": "HFD-STOP-132",
        "name": "Albany Ave & Stop #10",
        "corridor": "Albany Ave Corridor",
        "rank": 64,
        "priority_score": 46.3,
        "priority_category": "Moderate",
        "heat_score": 20.9,
        "shade_score": 90.4,
        "vulnerability_score": 60.9,
        "transit_score": 20.9,
        "dangerous_minutes": 240.0,
        "persistence_minutes": 240.0,
        "cumulative_exceedance": 3.8,
        "peak_hour": 15,
        "is_heat_anomaly": false
      }
    },
    {
      "type": "Feature",
      "geometry": {
        "type": "Point",
        "coordinates": [
          -72.676731,
          41.772886
        ]
      },
      "properties": {
        "asset_id": "HFD-STOP-114",
        "name": "Main St & Stop #14",
        "corridor": "Main St Corridor",
        "rank": 65,
        "priority_score": 46.3,
        "priority_category": "Moderate",
        "heat_score": 38.7,
        "shade_score": 92.2,
        "vulnerability_score": 27.8,
        "transit_score": 14.8,
        "dangerous_minutes": 300.0,
        "persistence_minutes": 300.0,
        "cumulative_exceedance": 8.9,
        "peak_hour": 14,
        "is_heat_anomaly": false
      }
    },
    {
      "type": "Feature",
      "geometry": {
        "type": "Point",
        "coordinates": [
          -72.672558,
          41.751589
        ]
      },
      "properties": {
        "asset_id": "HFD-STOP-205",
        "name": "Franklin Ave & Stop #12",
        "corridor": "Franklin Ave Corridor",
        "rank": 66,
        "priority_score": 46.2,
        "priority_category": "Moderate",
        "heat_score": 33.0,
        "shade_score": 36.5,
        "vulnerability_score": 90.4,
        "transit_score": 38.3,
        "dangerous_minutes": 300.0,
        "persistence_minutes": 300.0,
        "cumulative_exceedance": 6.1,
        "peak_hour": 15,
        "is_heat_anomaly": false
      }
    },
    {
      "type": "Feature",
      "geometry": {
        "type": "Point",
        "coordinates": [
          -72.702406,
          41.798205
        ]
      },
      "properties": {
        "asset_id": "HFD-STOP-217",
        "name": "Blue Hills Ave & Stop #10",
        "corridor": "Blue Hills Ave Corridor",
        "rank": 67,
        "priority_score": 45.8,
        "priority_category": "Moderate",
        "heat_score": 57.4,
        "shade_score": 6.1,
        "vulnerability_score": 62.6,
        "transit_score": 58.3,
        "dangerous_minutes": 360.0,
        "persistence_minutes": 360.0,
        "cumulative_exceedance": 9.0,
        "peak_hour": 14,
        "is_heat_anomaly": false
      }
    },
    {
      "type": "Feature",
      "geometry": {
        "type": "Point",
        "coordinates": [
          -72.693858,
          41.76921
        ]
      },
      "properties": {
        "asset_id": "HFD-STOP-167",
        "name": "Farmington Ave & Stop #7",
        "corridor": "Farmington Ave Corridor",
        "rank": 68,
        "priority_score": 44.9,
        "priority_category": "Moderate",
        "heat_score": 24.8,
        "shade_score": 53.0,
        "vulnerability_score": 40.0,
        "transit_score": 91.3,
        "dangerous_minutes": 240.0,
        "persistence_minutes": 240.0,
        "cumulative_exceedance": 5.0,
        "peak_hour": 15,
        "is_heat_anomaly": false
      }
    },
    {
      "type": "Feature",
      "geometry": {
        "type": "Point",
        "coordinates": [
          -72.712776,
          41.794667
        ]
      },
      "properties": {
        "asset_id": "HFD-STOP-141",
        "name": "Albany Ave & Stop #19",
        "corridor": "Albany Ave Corridor",
        "rank": 69,
        "priority_score": 44.8,
        "priority_category": "Moderate",
        "heat_score": 84.8,
        "shade_score": 0.9,
        "vulnerability_score": 38.3,
        "transit_score": 20.0,
        "dangerous_minutes": 420.0,
        "persistence_minutes": 420.0,
        "cumulative_exceedance": 25.8,
        "peak_hour": 15,
        "is_heat_anomaly": false
      }
    },
    {
      "type": "Feature",
      "geometry": {
        "type": "Point",
        "coordinates": [
          -72.703197,
          41.758711
        ]
      },
      "properties": {
        "asset_id": "HFD-STOP-154",
        "name": "Park St & Stop #12",
        "corridor": "Park St Corridor",
        "rank": 70,
        "priority_score": 44.5,
        "priority_category": "Moderate",
        "heat_score": 71.3,
        "shade_score": 32.2,
        "vulnerability_score": 7.0,
        "transit_score": 43.5,
        "dangerous_minutes": 420.0,
        "persistence_minutes": 420.0,
        "cumulative_exceedance": 13.1,
        "peak_hour": 15,
        "is_heat_anomaly": false
      }
    },
    {
      "type": "Feature",
      "geometry": {
        "type": "Point",
        "coordinates": [
          -72.689908,
          41.784118
        ]
      },
      "properties": {
        "asset_id": "HFD-STOP-130",
        "name": "Albany Ave & Stop #8",
        "corridor": "Albany Ave Corridor",
        "rank": 71,
        "priority_score": 44.5,
        "priority_category": "Moderate",
        "heat_score": 14.3,
        "shade_score": 72.2,
        "vulnerability_score": 69.6,
        "transit_score": 45.2,
        "dangerous_minutes": 240.0,
        "persistence_minutes": 240.0,
        "cumulative_exceedance": 2.0,
        "peak_hour": 14,
        "is_heat_anomaly": false
      }
    },
    {
      "type": "Feature",
      "geometry": {
        "type": "Point",
        "coordinates": [
          -72.676307,
          41.768637
        ]
      },
      "properties": {
        "asset_id": "HFD-STOP-112",
        "name": "Main St & Stop #12",
        "corridor": "Main St Corridor",
        "rank": 72,
        "priority_score": 44.4,
        "priority_category": "Moderate",
        "heat_score": 3.5,
        "shade_score": 100.0,
        "vulnerability_score": 37.4,
        "transit_score": 70.4,
        "dangerous_minutes": 60.0,
        "persistence_minutes": 60.0,
        "cumulative_exceedance": 0.6,
        "peak_hour": 15,
        "is_heat_anomaly": false
      }
    },
    {
      "type": "Feature",
      "geometry": {
        "type": "Point",
        "coordinates": [
          -72.677189,
          41.770412
        ]
      },
      "properties": {
        "asset_id": "HFD-STOP-113",
        "name": "Main St & Stop #13",
        "corridor": "Main St Corridor",
        "rank": 73,
        "priority_score": 43.5,
        "priority_category": "Moderate",
        "heat_score": 40.9,
        "shade_score": 45.2,
        "vulnerability_score": 61.7,
        "transit_score": 23.5,
        "dangerous_minutes": 300.0,
        "persistence_minutes": 300.0,
        "cumulative_exceedance": 9.5,
        "peak_hour": 15,
        "is_heat_anomaly": false
      }
    },
    {
      "type": "Feature",
      "geometry": {
        "type": "Point",
        "coordinates": [
          -72.675889,
          41.758197
        ]
      },
      "properties": {
        "asset_id": "HFD-STOP-107",
        "name": "Main St & Stop #7",
        "corridor": "Main St Corridor",
        "rank": 74,
        "priority_score": 43.4,
        "priority_category": "Moderate",
        "heat_score": 4.8,
        "shade_score": 84.3,
        "vulnerability_score": 94.8,
        "transit_score": 9.6,
        "dangerous_minutes": 120.0,
        "persistence_minutes": 120.0,
        "cumulative_exceedance": 0.8,
        "peak_hour": 15,
        "is_heat_anomaly": false
      }
    },
    {
      "type": "Feature",
      "geometry": {
        "type": "Point",
        "coordinates": [
          -72.683169,
          41.758134
        ]
      },
      "properties": {
        "asset_id": "HFD-STOP-146",
        "name": "Park St & Stop #4",
        "corridor": "Park St Corridor",
        "rank": 75,
        "priority_score": 43.0,
        "priority_category": "Moderate",
        "heat_score": 38.3,
        "shade_score": 20.9,
        "vulnerability_score": 67.8,
        "transit_score": 59.1,
        "dangerous_minutes": 300.0,
        "persistence_minutes": 300.0,
        "cumulative_exceedance": 8.8,
        "peak_hour": 15,
        "is_heat_anomaly": false
      }
    },
    {
      "type": "Feature",
      "geometry": {
        "type": "Point",
        "coordinates": [
          -72.693295,
          41.758454
        ]
      },
      "properties": {
        "asset_id": "HFD-STOP-189",
        "name": "Capitol Ave / Trinity & Stop #11",
        "corridor": "Capitol Ave / Trinity Corridor",
        "rank": 76,
        "priority_score": 42.9,
        "priority_category": "Moderate",
        "heat_score": 6.5,
        "shade_score": 89.6,
        "vulnerability_score": 80.9,
        "transit_score": 11.3,
        "dangerous_minutes": 120.0,
        "persistence_minutes": 120.0,
        "cumulative_exceedance": 1.4,
        "peak_hour": 14,
        "is_heat_anomaly": false
      }
    },
    {
      "type": "Feature",
      "geometry": {
        "type": "Point",
        "coordinates": [
          -72.672964,
          41.7433
        ]
      },
      "properties": {
        "asset_id": "HFD-STOP-201",
        "name": "Franklin Ave & Stop #8",
        "corridor": "Franklin Ave Corridor",
        "rank": 77,
        "priority_score": 42.6,
        "priority_category": "Moderate",
        "heat_score": 17.0,
        "shade_score": 53.9,
        "vulnerability_score": 75.7,
        "transit_score": 47.8,
        "dangerous_minutes": 300.0,
        "persistence_minutes": 300.0,
        "cumulative_exceedance": 1.4,
        "peak_hour": 15,
        "is_heat_anomaly": false
      }
    },
    {
      "type": "Feature",
      "geometry": {
        "type": "Point",
        "coordinates": [
          -72.675055,
          41.749759
        ]
      },
      "properties": {
        "asset_id": "HFD-STOP-103",
        "name": "Main St & Stop #3",
        "corridor": "Main St Corridor",
        "rank": 78,
        "priority_score": 42.6,
        "priority_category": "Moderate",
        "heat_score": 31.7,
        "shade_score": 19.1,
        "vulnerability_score": 67.8,
        "transit_score": 77.4,
        "dangerous_minutes": 300.0,
        "persistence_minutes": 300.0,
        "cumulative_exceedance": 5.8,
        "peak_hour": 15,
        "is_heat_anomaly": false
      }
    },
    {
      "type": "Feature",
      "geometry": {
        "type": "Point",
        "coordinates": [
          -72.672273,
          41.744615
        ]
      },
      "properties": {
        "asset_id": "HFD-STOP-202",
        "name": "Franklin Ave & Stop #9",
        "corridor": "Franklin Ave Corridor",
        "rank": 79,
        "priority_score": 42.5,
        "priority_category": "Moderate",
        "heat_score": 19.1,
        "shade_score": 21.7,
        "vulnerability_score": 93.0,
        "transit_score": 72.2,
        "dangerous_minutes": 240.0,
        "persistence_minutes": 240.0,
        "cumulative_exceedance": 3.1,
        "peak_hour": 16,
        "is_heat_anomaly": false
      }
    },
    {
      "type": "Feature",
      "geometry": {
        "type": "Point",
        "coordinates": [
          -72.675213,
          41.747073
        ]
      },
      "properties": {
        "asset_id": "HFD-STOP-102",
        "name": "Main St & Stop #2",
        "corridor": "Main St Corridor",
        "rank": 80,
        "priority_score": 42.4,
        "priority_category": "Moderate",
        "heat_score": 17.0,
        "shade_score": 16.5,
        "vulnerability_score": 97.4,
        "transit_score": 80.0,
        "dangerous_minutes": 240.0,
        "persistence_minutes": 240.0,
        "cumulative_exceedance": 2.5,
        "peak_hour": 16,
        "is_heat_anomaly": false
      }
    },
    {
      "type": "Feature",
      "geometry": {
        "type": "Point",
        "coordinates": [
          -72.695949,
          41.786928
        ]
      },
      "properties": {
        "asset_id": "HFD-STOP-133",
        "name": "Albany Ave & Stop #11",
        "corridor": "Albany Ave Corridor",
        "rank": 81,
        "priority_score": 42.2,
        "priority_category": "Moderate",
        "heat_score": 42.6,
        "shade_score": 40.9,
        "vulnerability_score": 53.0,
        "transit_score": 28.7,
        "dangerous_minutes": 300.0,
        "persistence_minutes": 300.0,
        "cumulative_exceedance": 9.8,
        "peak_hour": 15,
        "is_heat_anomaly": false
      }
    },
    {
      "type": "Feature",
      "geometry": {
        "type": "Point",
        "coordinates": [
          -72.68368,
          41.781481
        ]
      },
      "properties": {
        "asset_id": "HFD-STOP-127",
        "name": "Albany Ave & Stop #5",
        "corridor": "Albany Ave Corridor",
        "rank": 82,
        "priority_score": 40.5,
        "priority_category": "Moderate",
        "heat_score": 11.3,
        "shade_score": 75.7,
        "vulnerability_score": 52.2,
        "transit_score": 44.3,
        "dangerous_minutes": 180.0,
        "persistence_minutes": 180.0,
        "cumulative_exceedance": 2.0,
        "peak_hour": 15,
        "is_heat_anomaly": false
      }
    },
    {
      "type": "Feature",
      "geometry": {
        "type": "Point",
        "coordinates": [
          -72.677462,
          41.78116
        ]
      },
      "properties": {
        "asset_id": "HFD-STOP-118",
        "name": "Main St & Stop #18",
        "corridor": "Main St Corridor",
        "rank": 83,
        "priority_score": 39.4,
        "priority_category": "Low",
        "heat_score": 37.0,
        "shade_score": 31.3,
        "vulnerability_score": 27.0,
        "transit_score": 75.7,
        "dangerous_minutes": 300.0,
        "persistence_minutes": 300.0,
        "cumulative_exceedance": 8.3,
        "peak_hour": 15,
        "is_heat_anomaly": false
      }
    },
    {
      "type": "Feature",
      "geometry": {
        "type": "Point",
        "coordinates": [
          -72.677415,
          41.777334
        ]
      },
      "properties": {
        "asset_id": "HFD-STOP-116",
        "name": "Main St & Stop #16",
        "corridor": "Main St Corridor",
        "rank": 84,
        "priority_score": 39.4,
        "priority_category": "Low",
        "heat_score": 27.4,
        "shade_score": 34.8,
        "vulnerability_score": 56.5,
        "transit_score": 56.5,
        "dangerous_minutes": 300.0,
        "persistence_minutes": 300.0,
        "cumulative_exceedance": 4.1,
        "peak_hour": 14,
        "is_heat_anomaly": false
      }
    },
    {
      "type": "Feature",
      "geometry": {
        "type": "Point",
        "coordinates": [
          -72.700867,
          41.770225
        ]
      },
      "properties": {
        "asset_id": "HFD-STOP-170",
        "name": "Farmington Ave & Stop #10",
        "corridor": "Farmington Ave Corridor",
        "rank": 85,
        "priority_score": 39.0,
        "priority_category": "Low",
        "heat_score": 67.0,
        "shade_score": 33.0,
        "vulnerability_score": 6.1,
        "transit_score": 18.3,
        "dangerous_minutes": 360.0,
        "persistence_minutes": 360.0,
        "cumulative_exceedance": 13.1,
        "peak_hour": 16,
        "is_heat_anomaly": false
      }
    },
    {
      "type": "Feature",
      "geometry": {
        "type": "Point",
        "coordinates": [
          -72.684223,
          41.759514
        ]
      },
      "properties": {
        "asset_id": "HFD-STOP-185",
        "name": "Capitol Ave / Trinity & Stop #7",
        "corridor": "Capitol Ave / Trinity Corridor",
        "rank": 86,
        "priority_score": 38.5,
        "priority_category": "Low",
        "heat_score": 13.0,
        "shade_score": 63.5,
        "vulnerability_score": 82.6,
        "transit_score": 6.1,
        "dangerous_minutes": 180.0,
        "persistence_minutes": 180.0,
        "cumulative_exceedance": 2.4,
        "peak_hour": 15,
        "is_heat_anomaly": false
      }
    },
    {
      "type": "Feature",
      "geometry": {
        "type": "Point",
        "coordinates": [
          -72.700213,
          41.788508
        ]
      },
      "properties": {
        "asset_id": "HFD-STOP-135",
        "name": "Albany Ave & Stop #13",
        "corridor": "Albany Ave Corridor",
        "rank": 87,
        "priority_score": 38.5,
        "priority_category": "Low",
        "heat_score": 21.7,
        "shade_score": 67.0,
        "vulnerability_score": 45.2,
        "transit_score": 27.0,
        "dangerous_minutes": 240.0,
        "persistence_minutes": 240.0,
        "cumulative_exceedance": 4.0,
        "peak_hour": 15,
        "is_heat_anomaly": false
      }
    },
    {
      "type": "Feature",
      "geometry": {
        "type": "Point",
        "coordinates": [
          -72.691799,
          41.768645
        ]
      },
      "properties": {
        "asset_id": "HFD-STOP-166",
        "name": "Farmington Ave & Stop #6",
        "corridor": "Farmington Ave Corridor",
        "rank": 88,
        "priority_score": 38.0,
        "priority_category": "Low",
        "heat_score": 44.3,
        "shade_score": 4.3,
        "vulnerability_score": 33.9,
        "transit_score": 82.6,
        "dangerous_minutes": 300.0,
        "persistence_minutes": 300.0,
        "cumulative_exceedance": 10.8,
        "peak_hour": 16,
        "is_heat_anomaly": false
      }
    },
    {
      "type": "Feature",
      "geometry": {
        "type": "Point",
        "coordinates": [
          -72.682174,
          41.768053
        ]
      },
      "properties": {
        "asset_id": "HFD-STOP-162",
        "name": "Farmington Ave & Stop #2",
        "corridor": "Farmington Ave Corridor",
        "rank": 89,
        "priority_score": 37.9,
        "priority_category": "Low",
        "heat_score": 17.8,
        "shade_score": 69.6,
        "vulnerability_score": 48.7,
        "transit_score": 24.3,
        "dangerous_minutes": 240.0,
        "persistence_minutes": 240.0,
        "cumulative_exceedance": 2.9,
        "peak_hour": 14,
        "is_heat_anomaly": false
      }
    },
    {
      "type": "Feature",
      "geometry": {
        "type": "Point",
        "coordinates": [
          -72.675308,
          41.778089
        ]
      },
      "properties": {
        "asset_id": "HFD-STOP-123",
        "name": "Albany Ave & Stop #1",
        "corridor": "Albany Ave Corridor",
        "rank": 90,
        "priority_score": 37.8,
        "priority_category": "Low",
        "heat_score": 19.1,
        "shade_score": 73.0,
        "vulnerability_score": 40.9,
        "transit_score": 25.2,
        "dangerous_minutes": 240.0,
        "persistence_minutes": 240.0,
        "cumulative_exceedance": 3.1,
        "peak_hour": 15,
        "is_heat_anomaly": false
      }
    },
    {
      "type": "Feature",
      "geometry": {
        "type": "Point",
        "coordinates": [
          -72.685125,
          41.757836
        ]
      },
      "properties": {
        "asset_id": "HFD-STOP-147",
        "name": "Park St & Stop #5",
        "corridor": "Park St Corridor",
        "rank": 91,
        "priority_score": 37.5,
        "priority_category": "Low",
        "heat_score": 34.8,
        "shade_score": 5.2,
        "vulnerability_score": 72.2,
        "transit_score": 52.2,
        "dangerous_minutes": 300.0,
        "persistence_minutes": 300.0,
        "cumulative_exceedance": 7.5,
        "peak_hour": 16,
        "is_heat_anomaly": false
      }
    },
    {
      "type": "Feature",
      "geometry": {
        "type": "Point",
        "coordinates": [
          -72.672513,
          41.746739
        ]
      },
      "properties": {
        "asset_id": "HFD-STOP-203",
        "name": "Franklin Ave & Stop #10",
        "corridor": "Franklin Ave Corridor",
        "rank": 92,
        "priority_score": 36.5,
        "priority_category": "Low",
        "heat_score": 28.7,
        "shade_score": 13.0,
        "vulnerability_score": 87.8,
        "transit_score": 27.8,
        "dangerous_minutes": 300.0,
        "persistence_minutes": 300.0,
        "cumulative_exceedance": 4.8,
        "peak_hour": 15,
        "is_heat_anomaly": false
      }
    },
    {
      "type": "Feature",
      "geometry": {
        "type": "Point",
        "coordinates": [
          -72.709997,
          41.758536
        ]
      },
      "properties": {
        "asset_id": "HFD-STOP-157",
        "name": "Park St & Stop #15",
        "corridor": "Park St Corridor",
        "rank": 93,
        "priority_score": 36.5,
        "priority_category": "Low",
        "heat_score": 60.4,
        "shade_score": 15.7,
        "vulnerability_score": 0.9,
        "transit_score": 54.8,
        "dangerous_minutes": 360.0,
        "persistence_minutes": 360.0,
        "cumulative_exceedance": 9.7,
        "peak_hour": 16,
        "is_heat_anomaly": false
      }
    },
    {
      "type": "Feature",
      "geometry": {
        "type": "Point",
        "coordinates": [
          -72.698548,
          41.769033
        ]
      },
      "properties": {
        "asset_id": "HFD-STOP-169",
        "name": "Farmington Ave & Stop #9",
        "corridor": "Farmington Ave Corridor",
        "rank": 94,
        "priority_score": 35.4,
        "priority_category": "Low",
        "heat_score": 43.5,
        "shade_score": 25.2,
        "vulnerability_score": 18.3,
        "transit_score": 53.9,
        "dangerous_minutes": 300.0,
        "persistence_minutes": 300.0,
        "cumulative_exceedance": 10.4,
        "peak_hour": 15,
        "is_heat_anomaly": false
      }
    },
    {
      "type": "Feature",
      "geometry": {
        "type": "Point",
        "coordinates": [
          -72.672301,
          41.741733
        ]
      },
      "properties": {
        "asset_id": "HFD-STOP-200",
        "name": "Franklin Ave & Stop #7",
        "corridor": "Franklin Ave Corridor",
        "rank": 95,
        "priority_score": 35.3,
        "priority_category": "Low",
        "heat_score": 17.8,
        "shade_score": 35.7,
        "vulnerability_score": 96.5,
        "transit_score": 0.0,
        "dangerous_minutes": 240.0,
        "persistence_minutes": 240.0,
        "cumulative_exceedance": 2.9,
        "peak_hour": 16,
        "is_heat_anomaly": false
      }
    },
    {
      "type": "Feature",
      "geometry": {
        "type": "Point",
        "coordinates": [
          -72.672517,
          41.736167
        ]
      },
      "properties": {
        "asset_id": "HFD-STOP-197",
        "name": "Franklin Ave & Stop #4",
        "corridor": "Franklin Ave Corridor",
        "rank": 96,
        "priority_score": 34.3,
        "priority_category": "Low",
        "heat_score": 23.9,
        "shade_score": 68.7,
        "vulnerability_score": 13.9,
        "transit_score": 32.2,
        "dangerous_minutes": 300.0,
        "persistence_minutes": 300.0,
        "cumulative_exceedance": 3.0,
        "peak_hour": 15,
        "is_heat_anomaly": false
      }
    },
    {
      "type": "Feature",
      "geometry": {
        "type": "Point",
        "coordinates": [
          -72.675041,
          41.745149
        ]
      },
      "properties": {
        "asset_id": "HFD-STOP-101",
        "name": "Main St & Stop #1",
        "corridor": "Main St Corridor",
        "rank": 97,
        "priority_score": 34.0,
        "priority_category": "Low",
        "heat_score": 20.9,
        "shade_score": 29.6,
        "vulnerability_score": 78.3,
        "transit_score": 17.4,
        "dangerous_minutes": 300.0,
        "persistence_minutes": 300.0,
        "cumulative_exceedance": 2.3,
        "peak_hour": 15,
        "is_heat_anomaly": false
      }
    },
    {
      "type": "Feature",
      "geometry": {
        "type": "Point",
        "coordinates": [
          -72.672682,
          41.76115
        ]
      },
      "properties": {
        "asset_id": "HFD-STOP-179",
        "name": "Capitol Ave / Trinity & Stop #1",
        "corridor": "Capitol Ave / Trinity Corridor",
        "rank": 98,
        "priority_score": 33.7,
        "priority_category": "Low",
        "heat_score": 0.0,
        "shade_score": 93.9,
        "vulnerability_score": 19.1,
        "transit_score": 42.6,
        "dangerous_minutes": 0.0,
        "persistence_minutes": 0.0,
        "cumulative_exceedance": 0.0,
        "peak_hour": 15,
        "is_heat_anomaly": false
      }
    },
    {
      "type": "Feature",
      "geometry": {
        "type": "Point",
        "coordinates": [
          -72.698022,
          41.790709
        ]
      },
      "properties": {
        "asset_id": "HFD-STOP-212",
        "name": "Blue Hills Ave & Stop #5",
        "corridor": "Blue Hills Ave Corridor",
        "rank": 99,
        "priority_score": 33.5,
        "priority_category": "Low",
        "heat_score": 24.8,
        "shade_score": 67.0,
        "vulnerability_score": 28.7,
        "transit_score": 7.0,
        "dangerous_minutes": 240.0,
        "persistence_minutes": 240.0,
        "cumulative_exceedance": 5.0,
        "peak_hour": 15,
        "is_heat_anomaly": false
      }
    },
    {
      "type": "Feature",
      "geometry": {
        "type": "Point",
        "coordinates": [
          -72.672407,
          41.729848
        ]
      },
      "properties": {
        "asset_id": "HFD-STOP-194",
        "name": "Franklin Ave & Stop #1",
        "corridor": "Franklin Ave Corridor",
        "rank": 100,
        "priority_score": 33.5,
        "priority_category": "Low",
        "heat_score": 12.2,
        "shade_score": 73.0,
        "vulnerability_score": 14.8,
        "transit_score": 49.6,
        "dangerous_minutes": 180.0,
        "persistence_minutes": 180.0,
        "cumulative_exceedance": 2.1,
        "peak_hour": 15,
        "is_heat_anomaly": false
      }
    },
    {
      "type": "Feature",
      "geometry": {
        "type": "Point",
        "coordinates": [
          -72.703813,
          41.799073
        ]
      },
      "properties": {
        "asset_id": "HFD-STOP-218",
        "name": "Blue Hills Ave & Stop #11",
        "corridor": "Blue Hills Ave Corridor",
        "rank": 101,
        "priority_score": 31.4,
        "priority_category": "Low",
        "heat_score": 59.1,
        "shade_score": 0.0,
        "vulnerability_score": 35.7,
        "transit_score": 4.3,
        "dangerous_minutes": 360.0,
        "persistence_minutes": 360.0,
        "cumulative_exceedance": 9.5,
        "peak_hour": 14,
        "is_heat_anomaly": false
      }
    },
    {
      "type": "Feature",
      "geometry": {
        "type": "Point",
        "coordinates": [
          -72.676473,
          41.762377
        ]
      },
      "properties": {
        "asset_id": "HFD-STOP-109",
        "name": "Main St & Stop #9",
        "corridor": "Main St Corridor",
        "rank": 102,
        "priority_score": 30.8,
        "priority_category": "Low",
        "heat_score": 10.4,
        "shade_score": 11.3,
        "vulnerability_score": 48.7,
        "transit_score": 93.9,
        "dangerous_minutes": 180.0,
        "persistence_minutes": 180.0,
        "cumulative_exceedance": 1.7,
        "peak_hour": 14,
        "is_heat_anomaly": false
      }
    },
    {
      "type": "Feature",
      "geometry": {
        "type": "Point",
        "coordinates": [
          -72.680137,
          41.767726
        ]
      },
      "properties": {
        "asset_id": "HFD-STOP-161",
        "name": "Farmington Ave & Stop #1",
        "corridor": "Farmington Ave Corridor",
        "rank": 103,
        "priority_score": 30.6,
        "priority_category": "Low",
        "heat_score": 40.4,
        "shade_score": 18.3,
        "vulnerability_score": 22.6,
        "transit_score": 35.7,
        "dangerous_minutes": 300.0,
        "persistence_minutes": 300.0,
        "cumulative_exceedance": 9.2,
        "peak_hour": 15,
        "is_heat_anomaly": false
      }
    },
    {
      "type": "Feature",
      "geometry": {
        "type": "Point",
        "coordinates": [
          -72.701576,
          41.796411
        ]
      },
      "properties": {
        "asset_id": "HFD-STOP-216",
        "name": "Blue Hills Ave & Stop #9",
        "corridor": "Blue Hills Ave Corridor",
        "rank": 104,
        "priority_score": 30.5,
        "priority_category": "Low",
        "heat_score": 32.6,
        "shade_score": 13.9,
        "vulnerability_score": 31.3,
        "transit_score": 51.3,
        "dangerous_minutes": 300.0,
        "persistence_minutes": 300.0,
        "cumulative_exceedance": 6.0,
        "peak_hour": 14,
        "is_heat_anomaly": false
      }
    },
    {
      "type": "Feature",
      "geometry": {
        "type": "Point",
        "coordinates": [
          -72.686506,
          41.769246
        ]
      },
      "properties": {
        "asset_id": "HFD-STOP-164",
        "name": "Farmington Ave & Stop #4",
        "corridor": "Farmington Ave Corridor",
        "rank": 105,
        "priority_score": 29.4,
        "priority_category": "Low",
        "heat_score": 17.4,
        "shade_score": 13.9,
        "vulnerability_score": 25.2,
        "transit_score": 93.0,
        "dangerous_minutes": 240.0,
        "persistence_minutes": 240.0,
        "cumulative_exceedance": 2.8,
        "peak_hour": 15,
        "is_heat_anomaly": false
      }
    },
    {
      "type": "Feature",
      "geometry": {
        "type": "Point",
        "coordinates": [
          -72.67607,
          41.767262
        ]
      },
      "properties": {
        "asset_id": "HFD-STOP-111",
        "name": "Main St & Stop #11",
        "corridor": "Main St Corridor",
        "rank": 106,
        "priority_score": 28.1,
        "priority_category": "Low",
        "heat_score": 10.9,
        "shade_score": 12.2,
        "vulnerability_score": 35.7,
        "transit_score": 90.4,
        "dangerous_minutes": 180.0,
        "persistence_minutes": 180.0,
        "cumulative_exceedance": 1.9,
        "peak_hour": 15,
        "is_heat_anomaly": false
      }
    },
    {
      "type": "Feature",
      "geometry": {
        "type": "Point",
        "coordinates": [
          -72.675309,
          41.760622
        ]
      },
      "properties": {
        "asset_id": "HFD-STOP-180",
        "name": "Capitol Ave / Trinity & Stop #2",
        "corridor": "Capitol Ave / Trinity Corridor",
        "rank": 107,
        "priority_score": 25.6,
        "priority_category": "Low",
        "heat_score": 8.7,
        "shade_score": 50.4,
        "vulnerability_score": 20.0,
        "transit_score": 36.5,
        "dangerous_minutes": 180.0,
        "persistence_minutes": 180.0,
        "cumulative_exceedance": 1.4,
        "peak_hour": 14,
        "is_heat_anomaly": false
      }
    },
    {
      "type": "Feature",
      "geometry": {
        "type": "Point",
        "coordinates": [
          -72.672058,
          41.737387
        ]
      },
      "properties": {
        "asset_id": "HFD-STOP-198",
        "name": "Franklin Ave & Stop #5",
        "corridor": "Franklin Ave Corridor",
        "rank": 108,
        "priority_score": 23.7,
        "priority_category": "Low",
        "heat_score": 0.0,
        "shade_score": 83.5,
        "vulnerability_score": 11.3,
        "transit_score": 3.5,
        "dangerous_minutes": 0.0,
        "persistence_minutes": 0.0,
        "cumulative_exceedance": 0.0,
        "peak_hour": 14,
        "is_heat_anomaly": false
      }
    },
    {
      "type": "Feature",
      "geometry": {
        "type": "Point",
        "coordinates": [
          -72.672868,
          41.753339
        ]
      },
      "properties": {
        "asset_id": "HFD-STOP-206",
        "name": "Franklin Ave & Stop #13",
        "corridor": "Franklin Ave Corridor",
        "rank": 109,
        "priority_score": 23.5,
        "priority_category": "Low",
        "heat_score": 3.0,
        "shade_score": 16.5,
        "vulnerability_score": 89.6,
        "transit_score": 1.7,
        "dangerous_minutes": 60.0,
        "persistence_minutes": 60.0,
        "cumulative_exceedance": 0.5,
        "peak_hour": 14,
        "is_heat_anomaly": false
      }
    },
    {
      "type": "Feature",
      "geometry": {
        "type": "Point",
        "coordinates": [
          -72.672832,
          41.739443
        ]
      },
      "properties": {
        "asset_id": "HFD-STOP-199",
        "name": "Franklin Ave & Stop #6",
        "corridor": "Franklin Ave Corridor",
        "rank": 110,
        "priority_score": 23.0,
        "priority_category": "Low",
        "heat_score": 31.7,
        "shade_score": 26.1,
        "vulnerability_score": 12.2,
        "transit_score": 8.7,
        "dangerous_minutes": 300.0,
        "persistence_minutes": 300.0,
        "cumulative_exceedance": 5.8,
        "peak_hour": 14,
        "is_heat_anomaly": false
      }
    },
    {
      "type": "Feature",
      "geometry": {
        "type": "Point",
        "coordinates": [
          -72.677107,
          41.779349
        ]
      },
      "properties": {
        "asset_id": "HFD-STOP-117",
        "name": "Main St & Stop #17",
        "corridor": "Main St Corridor",
        "rank": 111,
        "priority_score": 21.8,
        "priority_category": "Low",
        "heat_score": 25.7,
        "shade_score": 8.7,
        "vulnerability_score": 16.5,
        "transit_score": 40.0,
        "dangerous_minutes": 300.0,
        "persistence_minutes": 300.0,
        "cumulative_exceedance": 3.6,
        "peak_hour": 15,
        "is_heat_anomaly": false
      }
    },
    {
      "type": "Feature",
      "geometry": {
        "type": "Point",
        "coordinates": [
          -72.676923,
          41.778935
        ]
      },
      "properties": {
        "asset_id": "HFD-STOP-124",
        "name": "Albany Ave & Stop #2",
        "corridor": "Albany Ave Corridor",
        "rank": 112,
        "priority_score": 17.7,
        "priority_category": "Low",
        "heat_score": 25.2,
        "shade_score": 9.6,
        "vulnerability_score": 16.5,
        "transit_score": 13.0,
        "dangerous_minutes": 300.0,
        "persistence_minutes": 300.0,
        "cumulative_exceedance": 3.4,
        "peak_hour": 15,
        "is_heat_anomaly": false
      }
    },
    {
      "type": "Feature",
      "geometry": {
        "type": "Point",
        "coordinates": [
          -72.703608,
          41.769561
        ]
      },
      "properties": {
        "asset_id": "HFD-STOP-171",
        "name": "Farmington Ave & Stop #11",
        "corridor": "Farmington Ave Corridor",
        "rank": 113,
        "priority_score": 17.5,
        "priority_category": "Low",
        "heat_score": 28.3,
        "shade_score": 3.5,
        "vulnerability_score": 9.6,
        "transit_score": 22.6,
        "dangerous_minutes": 300.0,
        "persistence_minutes": 300.0,
        "cumulative_exceedance": 4.3,
        "peak_hour": 14,
        "is_heat_anomaly": false
      }
    },
    {
      "type": "Feature",
      "geometry": {
        "type": "Point",
        "coordinates": [
          -72.672016,
          41.733751
        ]
      },
      "properties": {
        "asset_id": "HFD-STOP-196",
        "name": "Franklin Ave & Stop #3",
        "corridor": "Franklin Ave Corridor",
        "rank": 114,
        "priority_score": 16.7,
        "priority_category": "Low",
        "heat_score": 10.0,
        "shade_score": 28.7,
        "vulnerability_score": 15.7,
        "transit_score": 15.7,
        "dangerous_minutes": 180.0,
        "persistence_minutes": 180.0,
        "cumulative_exceedance": 1.5,
        "peak_hour": 15,
        "is_heat_anomaly": false
      }
    },
    {
      "type": "Feature",
      "geometry": {
        "type": "Point",
        "coordinates": [
          -72.707867,
          41.759082
        ]
      },
      "properties": {
        "asset_id": "HFD-STOP-156",
        "name": "Park St & Stop #14",
        "corridor": "Park St Corridor",
        "rank": 115,
        "priority_score": 15.2,
        "priority_category": "Low",
        "heat_score": 21.3,
        "shade_score": 23.5,
        "vulnerability_score": 0.0,
        "transit_score": 5.2,
        "dangerous_minutes": 300.0,
        "persistence_minutes": 300.0,
        "cumulative_exceedance": 2.4,
        "peak_hour": 15,
        "is_heat_anomaly": false
      }
    },
    {
      "type": "Feature",
      "geometry": {
        "type": "Point",
        "coordinates": [
          -72.672053,
          41.731449
        ]
      },
      "properties": {
        "asset_id": "HFD-STOP-195",
        "name": "Franklin Ave & Stop #2",
        "corridor": "Franklin Ave Corridor",
        "rank": 116,
        "priority_score": 14.4,
        "priority_category": "Low",
        "heat_score": 0.0,
        "shade_score": 7.0,
        "vulnerability_score": 13.0,
        "transit_score": 67.0,
        "dangerous_minutes": 0.0,
        "persistence_minutes": 0.0,
        "cumulative_exceedance": 0.0,
        "peak_hour": 14,
        "is_heat_anomaly": false
      }
    }
  ]
}