{
  "type": "FeatureCollection",
  "features": [
    {
      "type": "Feature",
      "properties": {
        "name": "Hartford",
        "state": "Connecticut",
        "fips": "0937000",
        "timezone": "America/New_York"
      },
      "geometry": {
        "type": "Polygon",
        "coordinates": [
          [
            [
              -72.705,
              41.738
            ],
            [
              -72.652,
              41.738
            ],
            [
              -72.65,
              41.755
            ],
            [
              -72.653,
              41.78
            ],
            [
              -72.66,
              41.795
            ],
            [
              -72.675,
              41.797
            ],
            [
              -72.695,
              41.792
            ],
            [
              -72.71,
              41.78
            ],
            [
              -72.713,
              41.76
            ],
            [
              -72.705,
              41.738
            ]
          ]
        ]
      }
    }
  ]
}