{
  "type": "FeatureCollection",
  "features": [
    {
      "type": "Feature",
      "properties": {
        "GEOID": "09003501100",
        "NAME": "Tract 1100"
      },
      "geometry": {
        "type": "Polygon",
        "coordinates": [
          [
            [
              -72.713,
              41.735
            ],
            [
              -72.7004,
              41.735
            ],
            [
              -72.7004,
              41.7474
            ],
            [
              -72.713,
              41.7474
            ],
            [
              -72.713,
              41.735
            ]
          ]
        ]
      }
    },
    {
      "type": "Feature",
      "properties": {
        "GEOID": "09003501200",
        "NAME": "Tract 1200"
      },
      "geometry": {
        "type": "Polygon",
        "coordinates": [
          [
            [
              -72.7004,
              41.735
            ],
            [
              -72.68780000000001,
              41.735
            ],
            [
              -72.68780000000001,
              41.7474
            ],
            [
              -72.7004,
              41.7474
            ],
            [
              -72.7004,
              41.735
            ]
          ]
        ]
      }
    },
    {
      "type": "Feature",
      "properties": {
        "GEOID": "09003501300",
        "NAME": "Tract 1300"
      },
      "geometry": {
        "type": "Polygon",
        "coordinates": [
          [
            [
              -72.6878,
              41.735
            ],
            [
              -72.6752,
              41.735
            ],
            [
              -72.6752,
              41.7474
            ],
            [
              -72.6878,
              41.7474
            ],
            [
              -72.6878,
              41.735
            ]
          ]
        ]
      }
    },
    {
      "type": "Feature",
      "properties": {
        "GEOID": "09003501400",
        "NAME": "Tract 1400"
      },
      "geometry": {
        "type": "Polygon",
        "coordinates": [
          [
            [
              -72.6752,
              41.735
            ],
            [
              -72.66260000000001,
              41.735
            ],
            [
              -72.66260000000001,
              41.7474
            ],
            [
              -72.6752,
              41.7474
            ],
            [
              -72.6752,
              41.735
            ]
          ]
        ]
      }
    },
    {
      "type": "Feature",
      "properties": {
        "GEOID": "09003501500",
        "NAME": "Tract 1500"
      },
      "geometry": {
        "type": "Polygon",
        "coordinates": [
          [
            [
              -72.6626,
              41.735
            ],
            [
              -72.65,
              41.735
            ],
            [
              -72.65,
              41.7474
            ],
            [
              -72.6626,
              41.7474
            ],
            [
              -72.6626,
              41.735
            ]
          ]
        ]
      }
    },
    {
      "type": "Feature",
      "properties": {
        "GEOID": "09003501600",
        "NAME": "Tract 1600"
      },
      "geometry": {
        "type": "Polygon",
        "coordinates": [
          [
            [
              -72.713,
              41.7474
            ],
            [
              -72.7004,
              41.7474
            ],
            [
              -72.7004,
              41.7598
            ],
            [
              -72.713,
              41.7598
            ],
            [
              -72.713,
              41.7474
            ]
          ]
        ]
      }
    },
    {
      "type": "Feature",
      "properties": {
        "GEOID": "09003501700",
        "NAME": "Tract 1700"
      },
      "geometry": {
        "type": "Polygon",
        "coordinates": [
          [
            [
              -72.7004,
              41.7474
            ],
            [
              -72.68780000000001,
              41.7474
            ],
            [
              -72.68780000000001,
              41.7598
            ],
            [
              -72.7004,
              41.7598
            ],
            [
              -72.7004,
              41.7474
            ]
          ]
        ]
      }
    },
    {
      "type": "Feature",
      "properties": {
        "GEOID": "09003501800",
        "NAME": "Tract 1800"
      },
      "geometry": {
        "type": "Polygon",
        "coordinates": [
          [
            [
              -72.6878,
              41.7474
            ],
            [
              -72.6752,
              41.7474
            ],
            [
              -72.6752,
              41.7598
            ],
            [
              -72.6878,
              41.7598
            ],
            [
              -72.6878,
              41.7474
            ]
          ]
        ]
      }
    },
    {
      "type": "Feature",
      "properties": {
        "GEOID": "09003501900",
        "NAME": "Tract 1900"
      },
      "geometry": {
        "type": "Polygon",
        "coordinates": [
          [
            [
              -72.6752,
              41.7474
            ],
            [
              -72.66260000000001,
              41.7474
            ],
            [
              -72.66260000000001,
              41.7598
            ],
            [
              -72.6752,
              41.7598
            ],
            [
              -72.6752,
              41.7474
            ]
          ]
        ]
      }
    },
    {
      "type": "Feature",
      "properties": {
        "GEOID": "09003502000",
        "NAME": "Tract 2000"
      },
      "geometry": {
        "type": "Polygon",
        "coordinates": [
          [
            [
              -72.6626,
              41.7474
            ],
            [
              -72.65,
              41.7474
            ],
            [
              -72.65,
              41.7598
            ],
            [
              -72.6626,
              41.7598
            ],
            [
              -72.6626,
              41.7474
            ]
          ]
        ]
      }
    },
    {
      "type": "Feature",
      "properties": {
        "GEOID": "09003502100",
        "NAME": "Tract 2100"
      },
      "geometry": {
        "type": "Polygon",
        "coordinates": [
          [
            [
              -72.713,
              41.7598
            ],
            [
              -72.7004,
              41.7598
            ],
            [
              -72.7004,
              41.7722
            ],
            [
              -72.713,
              41.7722
            ],
            [
              -72.713,
              41.7598
            ]
          ]
        ]
      }
    },
    {
      "type": "Feature",
      "properties": {
        "GEOID": "09003502200",
        "NAME": "Tract 2200"
      },
      "geometry": {
        "type": "Polygon",
        "coordinates": [
          [
            [
              -72.7004,
              41.7598
            ],
            [
              -72.68780000000001,
              41.7598
            ],
            [
              -72.68780000000001,
              41.7722
            ],
            [
              -72.7004,
              41.7722
            ],
            [
              -72.7004,
              41.7598
            ]
          ]
        ]
      }
    },
    {
      "type": "Feature",
      "properties": {
        "GEOID": "09003502300",
        "NAME": "Tract 2300"
      },
      "geometry": {
        "type": "Polygon",
        "coordinates": [
          [
            [
              -72.6878,
              41.7598
            ],
            [
              -72.6752,
              41.7598
            ],
            [
              -72.6752,
              41.7722
            ],
            [
              -72.6878,
              41.7722
            ],
            [
              -72.6878,
              41.7598
            ]
          ]
        ]
      }
    },
    {
      "type": "Feature",
      "properties": {
        "GEOID": "09003502400",
        "NAME": "Tract 2400"
      },
      "geometry": {
        "type": "Polygon",
        "coordinates": [
          [
            [
              -72.6752,
              41.7598
            ],
            [
              -72.66260000000001,
              41.7598
            ],
            [
              -72.66260000000001,
              41.7722
            ],
            [
              -72.6752,
              41.7722
            ],
            [
              -72.6752,
              41.7598
            ]
          ]
        ]
      }
    },
    {
      "type": "Feature",
      "properties": {
        "GEOID": "09003502500",
        "NAME": "Tract 2500"
      },
      "geometry": {
        "type": "Polygon",
        "coordinates": [
          [
            [
              -72.6626,
              41.7598
            ],
            [
              -72.65,
              41.7598
            ],
            [
              -72.65,
              41.7722
            ],
            [
              -72.6626,
              41.7722
            ],
            [
              -72.6626,
              41.7598
            ]
          ]
        ]
      }
    },
    {
      "type": "Feature",
      "properties": {
        "GEOID": "09003502600",
        "NAME": "Tract 2600"
      },
      "geometry": {
        "type": "Polygon",
        "coordinates": [
          [
            [
              -72.713,
              41.7722
            ],
            [
              -72.7004,
              41.7722
            ],
            [
              -72.7004,
              41.7846
            ],
            [
              -72.713,
              41.7846
            ],
            [
              -72.713,
              41.7722
            ]
          ]
        ]
      }
    },
    {
      "type": "Feature",
      "properties": {
        "GEOID": "09003502700",
        "NAME": "Tract 2700"
      },
      "geometry": {
        "type": "Polygon",
        "coordinates": [
          [
            [
              -72.7004,
              41.7722
            ],
            [
              -72.68780000000001,
              41.7722
            ],
            [
              -72.68780000000001,
              41.7846
            ],
            [
              -72.7004,
              41.7846
            ],
            [
              -72.7004,
              41.7722
            ]
          ]
        ]
      }
    },
    {
      "type": "Feature",
      "properties": {
        "GEOID": "09003502800",
        "NAME": "Tract 2800"
      },
      "geometry": {
        "type": "Polygon",
        "coordinates": [
          [
            [
              -72.6878,
              41.7722
            ],
            [
              -72.6752,
              41.7722
            ],
            [
              -72.6752,
              41.7846
            ],
            [
              -72.6878,
              41.7846
            ],
            [
              -72.6878,
              41.7722
            ]
          ]
        ]
      }
    },
    {
      "type": "Feature",
      "properties": {
        "GEOID": "09003502900",
        "NAME": "Tract 2900"
      },
      "geometry": {
        "type": "Polygon",
        "coordinates": [
          [
            [
              -72.6752,
              41.7722
            ],
            [
              -72.66260000000001,
              41.7722
            ],
            [
              -72.66260000000001,
              41.7846
            ],
            [
              -72.6752,
              41.7846
            ],
            [
              -72.6752,
              41.7722
            ]
          ]
        ]
      }
    },
    {
      "type": "Feature",
      "properties": {
        "GEOID": "09003503000",
        "NAME": "Tract 3000"
      },
      "geometry": {
        "type": "Polygon",
        "coordinates": [
          [
            [
              -72.6626,
              41.7722
            ],
            [
              -72.65,
              41.7722
            ],
            [
              -72.65,
              41.7846
            ],
            [
              -72.6626,
              41.7846
            ],
            [
              -72.6626,
              41.7722
            ]
          ]
        ]
      }
    },
    {
      "type": "Feature",
      "properties": {
        "GEOID": "09003503100",
        "NAME": "Tract 3100"
      },
      "geometry": {
        "type": "Polygon",
        "coordinates": [
          [
            [
              -72.713,
              41.7846
            ],
            [
              -72.7004,
              41.7846
            ],
            [
              -72.7004,
              41.797
            ],
            [
              -72.713,
              41.797
            ],
            [
              -72.713,
              41.7846
            ]
          ]
        ]
      }
    },
    {
      "type": "Feature",
      "properties": {
        "GEOID": "09003503200",
        "NAME": "Tract 3200"
      },
      "geometry": {
        "type": "Polygon",
        "coordinates": [
          [
            [
              -72.7004,
              41.7846
            ],
            [
              -72.68780000000001,
              41.7846
            ],
            [
              -72.68780000000001,
              41.797
            ],
            [
              -72.7004,
              41.797
            ],
            [
              -72.7004,
              41.7846
            ]
          ]
        ]
      }
    },
    {
      "type": "Feature",
      "properties": {
        "GEOID": "09003503300",
        "NAME": "Tract 3300"
      },
      "geometry": {
        "type": "Polygon",
        "coordinates": [
          [
            [
              -72.6878,
              41.7846
            ],
            [
              -72.6752,
              41.7846
            ],
            [
              -72.6752,
              41.797
            ],
            [
              -72.6878,
              41.797
            ],
            [
              -72.6878,
              41.7846
            ]
          ]
        ]
      }
    },
    {
      "type": "Feature",
      "properties": {
        "GEOID": "09003503400",
        "NAME": "Tract 3400"
      },
      "geometry": {
        "type": "Polygon",
        "coordinates": [
          [
            [
              -72.6752,
              41.7846
            ],
            [
              -72.66260000000001,
              41.7846
            ],
            [
              -72.66260000000001,
              41.797
            ],
            [
              -72.6752,
              41.797
            ],
            [
              -72.6752,
              41.7846
            ]
          ]
        ]
      }
    },
    {
      "type": "Feature",
      "properties": {
        "GEOID": "09003503500",
        "NAME": "Tract 3500"
      },
      "geometry": {
        "type": "Polygon",
        "coordinates": [
          [
            [
              -72.6626,
              41.7846
            ],
            [
              -72.65,
              41.7846
            ],
            [
              -72.65,
              41.797
            ],
            [
              -72.6626,
              41.797
            ],
            [
              -72.6626,
              41.7846
            ]
          ]
        ]
      }
    }
  ]
}